COSMOS 2576             
1 59773U 24092A   26068.82603826  .00015211  00000+0  56283-3 0  9991
2 59773  97.4253 186.0053 0005946 159.7731 200.3745 15.27760963101271
STARLINK-35935          
1 66527U 25265M   26068.57369823  .00064497  00000+0  23305-2 0  9995
2 66527  43.0066 278.7646 0001952 251.4524 108.6116 15.27613078 17097
